{
  "type": "FeatureCollection",
  "features": [
    {
      "type": "Feature",
      "properties": {
        "norad_id": 58701,
        "name": "TIANMU-1 16",
        "group": "weather",
        "lat": 80.61881843296537,
        "lon": 123.24266781633936,
        "alt_km": 487.7499557217534,
        "timestamp": "2025-12-20T20:38:44.088869+00:00",
        "meta_object_name": "TIANMU-1 16",
        "meta_object_id": "2024-004B",
        "meta_epoch": "2025-12-20T15:33:04.273632",
        "meta_mean_motion": 15.24529894,
        "meta_eccentricity": 0.00043259,
        "meta_inclination": 97.456,
        "meta_ra_of_asc_node": 175.4699,
        "meta_arg_of_pericenter": 259.9457,
        "meta_mean_anomaly": 100.1293,
        "meta_ephemeris_type": 0,
        "meta_classification_type": "U",
        "meta_norad_cat_id": 58701,
        "meta_element_set_no": 999,
        "meta_rev_at_epoch": 10855,
        "meta_bstar": 0.00019797376,
        "meta_mean_motion_dot": 4.799e-05,
        "meta_mean_motion_ddot": 0,
        "tle_line1": "1 58701U 24004B   25354.64796613  .00004799  00000+0  19797-3 0  9996",
        "tle_line2": "2 58701  97.4560 175.4699 0004325 259.9457 100.1293 15.24529894108554"
      },
      "geometry": {
        "type": "Point",
        "coordinates": [
          123.24266781633936,
          80.61881843296537
        ]
      }
    },
    {
      "type": "Feature",
      "properties": {
        "norad_id": 58702,
        "name": "TIANMU-1 17",
        "group": "weather",
        "lat": 9.745623287009892,
        "lon": -2.615113261490125,
        "alt_km": 493.84730565962946,
        "timestamp": "2025-12-20T20:38:44.088879+00:00",
        "meta_object_name": "TIANMU-1 17",
        "meta_object_id": "2024-004C",
        "meta_epoch": "2025-12-20T15:10:33.742272",
        "meta_mean_motion": 15.24573385,
        "meta_eccentricity": 0.00035194,
        "meta_inclination": 97.4595,
        "meta_ra_of_asc_node": 175.8685,
        "meta_arg_of_pericenter": 262.0546,
        "meta_mean_anomaly": 98.0293,
        "meta_ephemeris_type": 0,
        "meta_classification_type": "U",
        "meta_norad_cat_id": 58702,
        "meta_element_set_no": 999,
        "meta_rev_at_epoch": 10854,
        "meta_bstar": 0.00018867508,
        "meta_mean_motion_dot": 4.576e-05,
        "meta_mean_motion_ddot": 0,
        "tle_line1": "1 58702U 24004C   25354.63233498  .00004576  00000+0  18868-3 0  9994",
        "tle_line2": "2 58702  97.4595 175.8685 0003519 262.0546  98.0293 15.24573385108548"
      },
      "geometry": {
        "type": "Point",
        "coordinates": [
          -2.615113261490125,
          9.745623287009892
        ]
      }
    },
    {
      "type": "Feature",
      "properties": {
        "norad_id": 58703,
        "name": "TIANMU-1 18",
        "group": "weather",
        "lat": -78.49336705269539,
        "lon": -43.78169612187692,
        "alt_km": 497.49584244925245,
        "timestamp": "2025-12-20T20:38:44.088891+00:00",
        "meta_object_name": "TIANMU-1 18",
        "meta_object_id": "2024-004D",
        "meta_epoch": "2025-12-20T14:46:38.519904",
        "meta_mean_motion": 15.24558035,
        "meta_eccentricity": 0.00028648,
        "meta_inclination": 97.4612,
        "meta_ra_of_asc_node": 176.0488,
        "meta_arg_of_pericenter": 259.9896,
        "meta_mean_anomaly": 100.1019,
        "meta_ephemeris_type": 0,
        "meta_classification_type": "U",
        "meta_norad_cat_id": 58703,
        "meta_element_set_no": 999,
        "meta_rev_at_epoch": 10854,
        "meta_bstar": 0.00018217135,
        "meta_mean_motion_dot": 4.414e-05,
        "meta_mean_motion_ddot": 0,
        "tle_line1": "1 58703U 24004D   25354.61572361  .00004414  00000+0  18217-3 0  9997",
        "tle_line2": "2 58703  97.4612 176.0488 0002864 259.9896 100.1019 15.24558035108544"
      },
      "geometry": {
        "type": "Point",
        "coordinates": [
          -43.78169612187692,
          -78.49336705269539
        ]
      }
    },
    {
      "type": "Feature",
      "properties": {
        "norad_id": 58990,
        "name": "INSAT-3DS",
        "group": "weather",
        "lat": 0.03603003108427891,
        "lon": 121.46223875935667,
        "alt_km": 35789.950850440626,
        "timestamp": "2025-12-20T20:38:44.088903+00:00",
        "meta_object_name": "INSAT-3DS",
        "meta_object_id": "2024-033A",
        "meta_epoch": "2025-12-20T08:29:05.880192",
        "meta_mean_motion": 1.00272266,
        "meta_eccentricity": 0.00010792,
        "meta_inclination": 0.053,
        "meta_ra_of_asc_node": 104.8283,
        "meta_arg_of_pericenter": 167.2986,
        "meta_mean_anomaly": 26.441,
        "meta_ephemeris_type": 0,
        "meta_classification_type": "U",
        "meta_norad_cat_id": 58990,
        "meta_element_set_no": 999,
        "meta_rev_at_epoch": 4527,
        "meta_bstar": 0,
        "meta_mean_motion_dot": -1.33e-06,
        "meta_mean_motion_ddot": 0,
        "tle_line1": "1 58990U 24033A   25354.35354028 -.00000133  00000+0  00000+0 0  9998",
        "tle_line2": "2 58990   0.0530 104.8283 0001079 167.2986  26.4410  1.00272266 45274"
      },
      "geometry": {
        "type": "Point",
        "coordinates": [
          121.46223875935667,
          0.03603003108427891
        ]
      }
    },
    {
      "type": "Feature",
      "properties": {
        "norad_id": 59051,
        "name": "METEOR-M2 4",
        "group": "weather",
        "lat": -24.061038575647718,
        "lon": -44.44774929321723,
        "alt_km": 817.9392284593368,
        "timestamp": "2025-12-20T20:38:44.088914+00:00",
        "meta_object_name": "METEOR-M2 4",
        "meta_object_id": "2024-039A",
        "meta_epoch": "2025-12-20T14:00:24.236640",
        "meta_mean_motion": 14.22402361,
        "meta_eccentricity": 0.00066183,
        "meta_inclination": 98.6777,
        "meta_ra_of_asc_node": 311.3699,
        "meta_arg_of_pericenter": 335.4985,
        "meta_mean_anomaly": 24.5877,
        "meta_ephemeris_type": 0,
        "meta_classification_type": "U",
        "meta_norad_cat_id": 59051,
        "meta_element_set_no": 999,
        "meta_rev_at_epoch": 9387,
        "meta_bstar": 1.7544795e-05,
        "meta_mean_motion_dot": -5e-08,
        "meta_mean_motion_ddot": 0,
        "tle_line1": "1 59051U 24039A   25354.58361385 -.00000005  00000+0  17545-4 0  9997",
        "tle_line2": "2 59051  98.6777 311.3699 0006618 335.4985  24.5877 14.22402361 93871"
      },
      "geometry": {
        "type": "Point",
        "coordinates": [
          -44.44774929321723,
          -24.061038575647718
        ]
      }
    },
    {
      "type": "Feature",
      "properties": {
        "norad_id": 60133,
        "name": "GOES 19",
        "group": "weather",
        "lat": 0.0036588604438060274,
        "lon": -35.828702018314985,
        "alt_km": 35781.88165831385,
        "timestamp": "2025-12-20T20:38:44.088926+00:00",
        "meta_object_name": "GOES 19",
        "meta_object_id": "2024-119A",
        "meta_epoch": "2025-12-20T12:49:58.010016",
        "meta_mean_motion": 1.00270791,
        "meta_eccentricity": 0.00010722,
        "meta_inclination": 0.0206,
        "meta_ra_of_asc_node": 172.9729,
        "meta_arg_of_pericenter": 150.4573,
        "meta_mean_anomaly": 243.2384,
        "meta_ephemeris_type": 0,
        "meta_classification_type": "U",
        "meta_norad_cat_id": 60133,
        "meta_element_set_no": 999,
        "meta_rev_at_epoch": 517,
        "meta_bstar": 0,
        "meta_mean_motion_dot": -2.25e-06,
        "meta_mean_motion_ddot": 0,
        "tle_line1": "1 60133U 24119A   25354.53469919 -.00000225  00000+0  00000+0 0  9993",
        "tle_line2": "2 60133   0.0206 172.9729 0001072 150.4573 243.2384  1.00270791  5171"
      },
      "geometry": {
        "type": "Point",
        "coordinates": [
          -35.828702018314985,
          0.0036588604438060274
        ]
      }
    },
    {
      "type": "Feature",
      "properties": {
        "norad_id": 65815,
        "name": "FENGYUN 3H",
        "group": "weather",
        "lat": 37.6261584947734,
        "lon": 121.02066176719454,
        "alt_km": 822.45914739199,
        "timestamp": "2025-12-20T20:38:44.088936+00:00",
        "meta_object_name": "FENGYUN 3H",
        "meta_object_id": "2025-219A",
        "meta_epoch": "2025-12-20T11:31:26.875488",
        "meta_mean_motion": 14.19906569,
        "meta_eccentricity": 7.377e-05,
        "meta_inclination": 98.6595,
        "meta_ra_of_asc_node": 293.9027,
        "meta_arg_of_pericenter": 105.2848,
        "meta_mean_anomaly": 254.841,
        "meta_ephemeris_type": 0,
        "meta_classification_type": "U",
        "meta_norad_cat_id": 65815,
        "meta_element_set_no": 999,
        "meta_rev_at_epoch": 1202,
        "meta_bstar": 3.7480683e-05,
        "meta_mean_motion_dot": 3.6e-07,
        "meta_mean_motion_ddot": 0,
        "tle_line1": "1 65815U 25219A   25354.48017217  .00000036  00000+0  37481-4 0  9998",
        "tle_line2": "2 65815  98.6595 293.9027 0000737 105.2848 254.8410 14.19906569 12025"
      },
      "geometry": {
        "type": "Point",
        "coordinates": [
          121.02066176719454,
          37.6261584947734
        ]
      }
    }
  ]
}